[{"OBJECT_NAME":"EXCITE","OBJECT_ID":"2018-099BP","EPOCH":"2026-03-09T16:45:15.060672","MEAN_MOTION":15.06036758,"ECCENTRICITY":0.0017626,"INCLINATION":97.4107,"RA_OF_ASC_NODE":111.3606,"ARG_OF_PERICENTER":337.4818,"MEAN_ANOMALY":22.5634,"EPHEMERIS_TYPE":0,"CLASSIFICATION_TYPE":"U","NORAD_CAT_ID":43819,"ELEMENT_SET_NO":999,"REV_AT_EPOCH":39677,"BSTAR":0.00019631388,"MEAN_MOTION_DOT":2.813e-5,"MEAN_MOTION_DDOT":0},{"OBJECT_NAME":"STARLINK-3527","OBJECT_ID":"2022-016N","EPOCH":"2026-03-09T22:42:40.124736","MEAN_MOTION":15.0895963,"ECCENTRICITY":0.00012129,"INCLINATION":53.2166,"RA_OF_ASC_NODE":317.9674,"ARG_OF_PERICENTER":98.5905,"MEAN_ANOMALY":261.5225,"EPHEMERIS_TYPE":0,"CLASSIFICATION_TYPE":"U","NORAD_CAT_ID":51726,"ELEMENT_SET_NO":999,"REV_AT_EPOCH":22360,"BSTAR":0.00054417406,"MEAN_MOTION_DOT":8.411e-5,"MEAN_MOTION_DDOT":0}]
